NORAD_CAT_ID,OBJECT_NAME,OBJECT_TYPE,EPOCH,MEAN_MOTION,ECCENTRICITY,INCLINATION,RA_OF_ASC_NODE,ARG_OF_PERICENTER,MEAN_ANOMALY,BSTAR,MEAN_MOTION_DOT,MEAN_MOTION_DDOT,TLE_LINE0,TLE_LINE1,TLE_LINE2,SEMIMAJOR_AXIS,PERIOD,APOGEE,PERIGEE,DECAYED
53566.0,STARLINK-4576,PAYLOAD,2024-06-10 20:18:40,15.08837041,0.0001442,53.2197,33.0066,99.9463,260.1692,0.0001716,2.444e-05,0.0,0 STARLINK-4576,1 53566U 22101AR  24162.84629931  .00002444  00000-0  17160-3 0  9990,2 53566  53.2197  33.0066 0001442  99.9463 260.1692 15.08837041100300,6917.889,95.438,540.752,538.757,0.0
53566.0,STARLINK-4576,PAYLOAD,2024-06-10 21:54:03,15.08836674,0.0001472,53.22,32.7101,90.9667,269.1494,0.00017255,2.459e-05,0.0,0 STARLINK-4576,1 53566U 22101AR  24162.91254268  .00002459  00000-0  17255-3 0  9996,2 53566  53.2200  32.7101 0001472  90.9667 269.1494 15.08836674101009,6917.891,95.438,540.774,538.737,0.0
53566.0,STARLINK-4576,PAYLOAD,2024-06-11 21:44:50,15.08835714,0.0001454,53.219,28.251,91.4171,268.6988,0.00018252,2.618e-05,0.0,0 STARLINK-4576,1 53566U 22101AR  24163.90613979  .00002618  00000-0  18252-3 0  9999,2 53566  53.2190  28.2510 0001454  91.4171 268.6988 15.08835714100462,6917.893,95.438,540.764,538.753,0.0
53566.0,STARLINK-4576,PAYLOAD,2024-06-12 20:00:14,15.08833657,0.0001416,53.2187,24.0876,90.6345,269.4809,2.3666e-05,8.9e-07,0.0,0 STARLINK-4576,1 53566U 22101AR  24164.83350547  .00000089  00000-0  23666-4 0  9997,2 53566  53.2187  24.0876 0001416  90.6345 269.4809 15.08833657100600,6917.9,95.438,540.744,538.785,0.0
53566.0,STARLINK-4576,PAYLOAD,2024-06-12 21:35:37,15.08837373,0.0001306,53.218,23.7891,85.8478,274.2663,-2.1345e-05,-6.28e-06,0.0,0 STARLINK-4576,1 53566U 22101AR  24164.89974425 -.00000628  00000-0 -21345-4 0  9993,2 53566  53.2180  23.7891 0001306  85.8478 274.2663 15.08837373101306,6917.888,95.438,540.657,538.85,0.0
53566.0,STARLINK-4576,PAYLOAD,2024-06-13 07:07:56,15.08843908,0.0001303,53.2181,22.0065,82.2657,277.8483,3.056e-05,1.99e-06,0.0,0 STARLINK-4576,1 53566U 22101AR  24165.29717843  .00000199  00000-0  30560-4 0  9997,2 53566  53.2181  22.0065 0001303  82.2657 277.8483 15.08843908100678,6917.868,95.437,540.635,538.832,0.0
53566.0,STARLINK-4576,PAYLOAD,2024-06-13 15:04:52,15.08833549,0.0001794,53.2197,20.5295,126.459,233.6567,4.7878e-06,-2.12e-06,0.0,0 STARLINK-4576,1 53566U 22101AR  24165.62838552 -.00000212  00000-0  47878-5 0  9993,2 53566  53.2197  20.5295 0001794 126.4590 233.6567 15.08833549101410,6917.9,95.438,541.006,538.524,0.0
53566.0,STARLINK-4576,PAYLOAD,2024-06-13 21:26:24,15.08837241,0.0001689,53.22,19.3399,118.2611,241.8552,6.7082e-06,-1.81e-06,0.0,0 STARLINK-4576,1 53566U 22101AR  24165.89334439 -.00000181  00000-0  67082-5 0  9991,2 53566  53.2200  19.3399 0001689 118.2611 241.8552 15.08837241101454,6917.889,95.438,540.922,538.585,0.0
53566.0,STARLINK-4576,PAYLOAD,2024-06-14 06:58:43,15.08843275,0.0001611,53.2205,17.549,103.6905,256.4267,0.00010792,1.43e-05,0.0,0 STARLINK-4576,1 53566U 22101AR  24166.29077862  .00001430  00000-0  10792-3 0  9991,2 53566  53.2205  17.5490 0001611 103.6905 256.4267 15.08843275101516,6917.87,95.437,540.85,538.621,0.0
53566.0,STARLINK-4576,PAYLOAD,2024-06-14 21:17:12,15.0883403,0.0001368,53.219,14.8714,89.8565,270.2584,3.0521e-05,1.98e-06,0.0,0 STARLINK-4576,1 53566U 22101AR  24166.88694893  .00000198  00000-0  30521-4 0  9998,2 53566  53.2190  14.8714 0001368  89.8565 270.2584 15.08834030100912,6917.899,95.438,540.71,538.817,0.0
53566.0,STARLINK-4576,PAYLOAD,2024-06-15 13:11:03,15.08841187,0.0002101,53.2205,11.8992,85.4233,274.6999,0.00015502,2.18e-05,0.0,0 STARLINK-4576,1 53566U 22101AR  24167.54934426  .00002180  00000-0  15502-3 0  9995,2 53566  53.2205  11.8992 0002101  85.4233 274.6999 15.08841187101701,6917.877,95.437,541.195,538.288,0.0
53566.0,STARLINK-4576,PAYLOAD,2024-06-15 21:07:59,15.08837633,0.0001584,53.2197,10.411,85.9561,274.1612,7.5769e-05,9.18e-06,0.0,0 STARLINK-4576,1 53566U 22101AR  24167.88054874  .00000918  00000-0  75769-4 0  9991,2 53566  53.2197  10.4110 0001584  85.9561 274.1612 15.08837633101754,6917.888,95.438,540.848,538.657,0.0
53566.0,STARLINK-4576,PAYLOAD,2024-06-16 06:40:17,15.08850356,0.0001533,53.2196,8.6272,86.5701,273.5467,9.3495e-05,1.201e-05,0.0,0 STARLINK-4576,1 53566U 22101AR  24168.27797966  .00001201  00000-0  93495-4 0  9993,2 53566  53.2196   8.6272 0001533  86.5701 273.5467 15.08850356101813,6917.849,95.437,540.774,538.653,0.0
53566.0,STARLINK-4576,PAYLOAD,2024-06-16 22:34:09,15.08840979,0.0001358,53.2174,5.6514,85.8767,274.238,3.6689e-05,2.96e-06,0.0,0 STARLINK-4576,1 53566U 22101AR  24168.94038850  .00000296  00000-0  36689-4 0  9992,2 53566  53.2174   5.6514 0001358  85.8767 274.2380 15.08840979101917,6917.877,95.437,540.682,538.803,0.0
53566.0,STARLINK-4576,PAYLOAD,2024-06-17 19:14:09,15.08844049,0.0001553,53.2175,1.7864,87.5256,272.5913,0.00015159,2.126e-05,0.0,0 STARLINK-4576,1 53566U 22101AR  24169.80150288  .00002126  00000-0  15159-3 0  9990,2 53566  53.2175   1.7864 0001553  87.5256 272.5913 15.08844049101355,6917.868,95.437,540.807,538.659,0.0
53566.0,STARLINK-4576,PAYLOAD,2024-06-17 22:24:55,15.08851215,0.0001582,53.22,1.1896,98.4668,261.6503,0.00011459,1.537e-05,0.0,0 STARLINK-4576,1 53566U 22101AR  24169.93397869  .00001537  00000-0  11459-3 0  9996,2 53566  53.2200   1.1896 0001582  98.4668 261.6503 15.08851215102069,6917.846,95.437,540.806,538.617,0.0
53566.0,STARLINK-4576,PAYLOAD,2024-06-18 06:21:51,15.08854829,0.0001506,53.2184,359.704,91.5854,268.531,0.00021648,3.16e-05,0.0,0 STARLINK-4576,1 53566U 22101AR  24170.26517621  .00003160  00000-0  21648-3 0  9999,2 53566  53.2184 359.7040 0001506  91.5854 268.5310 15.08854829101425,6917.835,95.437,540.742,538.658,0.0
53566.0,STARLINK-4576,PAYLOAD,2024-06-18 19:04:57,15.08838436,0.0001573,53.2181,357.3251,96.4049,263.7122,9.3931e-05,1.207e-05,0.0,0 STARLINK-4576,1 53566U 22101AR  24170.79510521  .00001207  00000-0  93931-4 0  9994,2 53566  53.2181 357.3251 0001573  96.4049 263.7122 15.08838436101507,6917.885,95.438,540.838,538.662,0.0
53566.0,STARLINK-4576,PAYLOAD,2024-06-18 22:15:43,15.0884165,0.0001494,53.219,356.7313,92.6998,267.4165,4.1854e-05,3.78e-06,0.0,0 STARLINK-4576,1 53566U 22101AR  24170.92758349  .00000378  00000-0  41854-4 0  9996,2 53566  53.2190 356.7313 0001494  92.6998 267.4165 15.08841650102211,6917.875,95.437,540.774,538.707,0.0
53566.0,STARLINK-4576,PAYLOAD,2024-06-19 12:34:11,15.08838036,0.0001568,53.219,354.0526,99.2887,260.8282,-9.6662e-06,-4.42e-06,0.0,0 STARLINK-4576,1 53566U 22101AR  24171.52374555 -.00000442  00000-0 -96662-5 0  9998,2 53566  53.2190 354.0526 0001568  99.2887 260.8282 15.08838036102301,6917.886,95.438,540.836,538.667,0.0
53566.0,STARLINK-4576,PAYLOAD,2024-06-19 18:55:44,15.08833598,0.0001291,53.2174,352.8673,81.2695,278.8443,-4.279e-05,-9.69e-06,0.0,0 STARLINK-4576,1 53566U 22101AR  24171.78870901 -.00000969  00000-0 -42790-4 0  9998,2 53566  53.2174 352.8673 0001291  81.2695 278.8443 15.08833598102343,6917.9,95.438,540.658,538.872,0.0
53566.0,STARLINK-4576,PAYLOAD,2024-06-20 21:57:18,15.08835661,0.0001274,53.2176,347.81,83.5745,276.5392,0.00014125,1.961e-05,0.0,0 STARLINK-4576,1 53566U 22101AR  24172.91479190  .00001961  00000-0  14125-3 0  9990,2 53566  53.2176 347.8100 0001274  83.5745 276.5392 15.08835661101829,6917.894,95.438,540.64,538.877,0.0
53566.0,STARLINK-4576,PAYLOAD,2024-06-21 21:48:05,15.08837907,0.0001295,53.2178,343.3499,77.86,282.2537,0.00013061,1.791e-05,0.0,0 STARLINK-4576,1 53566U 22101AR  24173.90839403  .00001791  00000-0  13061-3 0  9996,2 53566  53.2178 343.3499 0001295  77.8600 282.2537 15.08837907102665,6917.887,95.438,540.648,538.856,0.0
53566.0,STARLINK-4576,PAYLOAD,2024-06-22 20:03:29,15.08843719,0.0001225,53.2188,339.1871,97.0961,263.017,0.0001021,1.338e-05,0.0,0 STARLINK-4576,1 53566U 22101AR  24174.83575317  .00001338  00000-0  10210-3 0  9990,2 53566  53.2188 339.1871 0001225  97.0961 263.0170 15.08843719102118,6917.869,95.437,540.581,538.887,0.0
53566.0,STARLINK-4576,PAYLOAD,2024-06-23 19:54:16,15.0884258,0.0001274,53.219,334.7267,96.6146,263.4991,0.00010177,1.332e-05,0.0,0 STARLINK-4576,1 53566U 22101AR  24175.82935415  .00001332  00000-0  10177-3 0  9995,2 53566  53.2190 334.7267 0001274  96.6146 263.4991 15.08842580102957,6917.873,95.437,540.619,538.856,0.0
53566.0,STARLINK-4576,PAYLOAD,2024-06-24 10:12:44,15.08841856,0.0001211,53.2185,332.0496,113.3187,246.7932,7.9481e-05,9.77e-06,0.0,0 STARLINK-4576,1 53566U 22101AR  24176.42551392  .00000977  00000-0  79481-4 0  9998,2 53566  53.2185 332.0496 0001211 113.3187 246.7932 15.08841856102357,6917.875,95.437,540.577,538.902,0.0
53566.0,STARLINK-4576,PAYLOAD,2024-06-24 14:58:53,15.0884286,0.000121,53.2186,331.1581,109.9594,250.1529,7.7205e-05,9.41e-06,0.0,0 STARLINK-4576,1 53566U 22101AR  24176.62423326  .00000941  00000-0  77205-4 0  9998,2 53566  53.2186 331.1581 0001210 109.9594 250.1529 15.08842860103072,6917.872,95.437,540.574,538.9,0.0
53566.0,STARLINK-4576,PAYLOAD,2024-06-24 16:34:16,15.0884407,0.0001251,53.2186,330.8607,104.1216,255.9915,8.832e-05,1.118e-05,0.0,0 STARLINK-4576,1 53566U 22101AR  24176.69047243  .00001118  00000-0  88320-4 0  9992,2 53566  53.2186 330.8607 0001251 104.1216 255.9915 15.08844070103088,6917.868,95.437,540.598,538.868,0.0
53566.0,STARLINK-4576,PAYLOAD,2024-06-25 14:49:40,15.08843674,0.0001239,53.2184,326.6984,94.7241,265.3893,7.0879e-05,8.4e-06,0.0,0 STARLINK-4576,1 53566U 22101AR  24177.61783310  .00000840  00000-0  70879-4 0  9998,2 53566  53.2184 326.6984 0001239  94.7241 265.3893 15.08843674103220,6917.869,95.437,540.591,538.877,0.0
53566.0,STARLINK-4576,PAYLOAD,2024-06-25 18:00:26,15.08845775,0.0001277,53.2187,326.1038,94.0345,266.0794,8.478e-05,1.062e-05,0.0,0 STARLINK-4576,1 53566U 22101AR  24177.75031106  .00001062  00000-0  84780-4 0  9995,2 53566  53.2187 326.1038 0001277  94.0345 266.0794 15.08845775102555,6917.863,95.437,540.611,538.844,0.0
